STARLINK-35644          
1 66402U 25257Y   25333.25002315 -.00160095  00000+0 -29225-2 0  9997
2 66402  53.1594 328.2829 0001597  67.2584 129.2354 15.49377259  4322
STARLINK-35602          
1 66403U 25257Z   25333.25002315 -.00175818  00000+0 -32158-2 0  9996
2 66403  53.1595 328.2711 0001658  67.1355 135.1083 15.49385379  4324
STARLINK-35691          
1 66404U 25257AA  25333.25002315 -.00131930  00000+0 -23994-2 0  9992
2 66404  53.1594 328.2666 0001611  65.0526 139.1035 15.49364119  4329
STARLINK-35683          
1 66405U 25257AB  25333.25002315 -.00134233  00000+0 -24421-2 0  9998
2 66405  53.1594 328.2622 0001610  63.8313 142.2429 15.49364525  4166
STARLINK-34840          
1 66406U 25257AC  25333.25002315 -.00136459  00000+0 -24833-2 0  9998
2 66406  53.1592 328.2506 0001676  66.1726 145.6539 15.49366200  4275
STARLINK-35686          
1 66407U 25257AD  25333.25002315 -.00155940  00000+0 -28450-2 0  9994
2 66407  53.1594 328.2585 0001729  65.4006 142.5920 15.49376070  4329
STARLINK-35679          
1 66408U 25257AE  25333.25002315 -.00149854  00000+0 -27319-2 0  9995
2 66408  53.1593 328.2558 0001642  66.6912 143.2189 15.49372963  4324
CHUTIAN-2 A             
1 66409U 25256A   25333.26882872  .00000047  00000+0  23462-4 0  9995
2 66409  98.2780  38.2683 0013053 219.5401 140.4842 14.49909005  2922
CHUTIAN-2 B             
1 66410U 25256B   25333.32926124  .00000645  00000+0  17426-3 0  9999
2 66410  98.2810  38.3529 0013070 223.2107 136.8063 14.50996040  2934
ZK-1A R/B               
1 66411U 25256C   25324.72402141  .00011214  00000+0  48988-3 0  9993
2 66411  98.3243  30.9055 0232353 318.4537  39.9225 15.01236100  1741
HULIANWANG DIGUI 13A    
1 66412U 25258A   25333.29968884 -.00000069  00000+0  39313-4 0  9999
2 66412  50.0037 318.5350 0014052 310.3041  49.6643 14.23487669  2740
HULIANWANG DIGUI 13B    
1 66413U 25258B   25333.30732549 -.00000155  00000+0  18231-5 0  9992
2 66413  50.0013 318.5647 0013358 310.6226  49.3525 14.23479181  2746
HULIANWANG DIGUI 13C    
1 66414U 25258C   25333.30424348 -.00000105  00000+0  23521-4 0  9990
2 66414  50.0051 318.5617 0013576 309.0717  50.8988 14.23504409  2747
HULIANWANG DIGUI 13D    
1 66415U 25258D   25333.29829615  .00000000  00000+0  69646-4 0  9996
2 66415  50.0053 318.5274 0013321 315.5590  44.4253 14.23492436  2748
HULIANWANG DIGUI 13E    
1 66416U 25258E   25333.30245431 -.00000075  00000+0  36811-4 0  9998
2 66416  50.0050 318.5540 0012721 316.9079  43.0838 14.23465536  2747
HULIANWANG DIGUI 13F    
1 66417U 25258F   25333.30112205 -.00000053  00000+0  46627-4 0  9993
2 66417  50.0002 318.5267 0012406 315.3307  44.6606 14.23473299  2743
HULIANWANG DIGUI 13G    
1 66418U 25258G   25333.29696248  .00000019  00000+0  77828-4 0  9994
2 66418  50.0011 318.5050 0012432 311.1966  48.7875 14.23484237  2745
HULIANWANG DIGUI 13H    
1 66419U 25258H   25333.29553252  .00000041  00000+0  87654-4 0  9995
2 66419  50.0003 318.4947 0012073 312.3743  47.6147 14.23501453  2748
HULIANWANG DIGUI 13J    
1 66420U 25258J   25333.29428025  .00000061  00000+0  96093-4 0  9995
2 66420  50.0026 318.4969 0011346 319.2981  40.7083 14.23469049  2737
CZ-12 R/B               
1 66421U 25258K   25333.27879624 -.00000088  00000+0  24340-4 0  9995
2 66421  49.9957 316.3592 0064604 201.0382 158.7879 14.42314254  2770
STARLINK-35617          
1 66422U 25259A   25333.25002315 -.01967416  00000+0 -23821-1 0  9999
2 66422  42.9996 126.3967 0001901 273.3789 128.9664 15.63112351  4115
STARLINK-35618          
1 66423U 25259B   25333.25002315 -.01963922  00000+0 -23774-1 0  9995
2 66423  42.9994 126.3920 0001927 273.1173 131.1445 15.63110260  4116
STARLINK-35588          
1 66424U 25259C   25333.25002315 -.01965989  00000+0 -23801-1 0  9992
2 66424  42.9995 126.3876 0001975 272.9108 133.2675 15.63111396  4115
STARLINK-35555          
1 66425U 25259D   25333.25002315 -.01961426  00000+0 -23742-1 0  9999
2 66425  42.9996 126.3815 0001873 273.2880 134.8094 15.63108331  4115
STARLINK-35589          
1 66426U 25259E   25333.25002315 -.01996561  00000+0 -24213-1 0  9992
2 66426  42.9993 126.3774 0001625 272.9096 137.1022 15.63125794  4116
STARLINK-35611          
1 66427U 25259F   25333.25002315 -.01964541  00000+0 -23782-1 0  9996
2 66427  42.9996 126.3723 0001961 272.4161 139.5137 15.63110792  4110
STARLINK-35610          
1 66428U 25259G   25333.25002315 -.01988639  00000+0 -24104-1 0  9990
2 66428  42.9995 126.3665 0001717 271.8594 141.9842 15.63124246  4116
STARLINK-35533          
1 66429U 25259H   25333.25002315 -.01994534  00000+0 -24185-1 0  9991
2 66429  42.9994 126.3606 0001611 275.0398 140.7219 15.63125909  4114
STARLINK-35470          
1 66430U 25259J   25333.25002315 -.01972227  00000+0 -23884-1 0  9993
2 66430  42.9996 126.3578 0001968 273.8979 143.7824 15.63115271  4118
STARLINK-35439          
1 66431U 25259K   25333.25002315 -.01973051  00000+0 -23895-1 0  9992
2 66431  42.9997 126.3519 0001968 273.2363 146.3609 15.63114663  4110
STARLINK-35446          
1 66432U 25259L   25333.25002315 -.01995980  00000+0 -24204-1 0  9993
2 66432  42.9995 126.3460 0001702 274.7575 146.7555 15.63125327  4114
STARLINK-35457          
1 66433U 25259M   25333.25002315 -.01998156  00000+0 -24233-1 0  9994
2 66433  42.9993 126.3424 0001606 273.8037 149.6249 15.63128316  4112
STARLINK-35389          
1 66434U 25259N   25333.25002315 -.01974686  00000+0 -23919-1 0  9997
2 66434  42.9996 126.3384 0001813 275.9957 149.3542 15.63114904  4116
STARLINK-35502          
1 66435U 25259P   25333.25002315 -.01975958  00000+0 -23934-1 0  9998
2 66435  42.9997 126.3344 0001922 276.1459 151.1185 15.63117125  4117
STARLINK-35501          
1 66436U 25259Q   25333.25002315 -.01968570  00000+0 -23836-1 0  9992
2 66436  42.9998 126.3238 0001909 275.5124 155.5871 15.63112801  4114
STARLINK-35474          
1 66437U 25259R   25333.25002315 -.01970874  00000+0 -23866-1 0  9996
2 66437  42.9998 126.3194 0001990 276.9021 156.1144 15.63113651  4111
STARLINK-34681          
1 66438U 25259S   25333.25002315 -.01978363  00000+0 -23966-1 0  9999
2 66438  42.9994 126.3143 0001913 275.9244 159.0079 15.63117690  4007
STARLINK-35327          
1 66439U 25259T   25333.25002315 -.01970779  00000+0 -23867-1 0  9993
2 66439  42.9997 126.3305 0001833 276.1495 153.0350 15.63112756  4119
STARLINK-35405          
1 66440U 25259U   25333.25002315 -.01981233  00000+0 -24006-1 0  9998
2 66440  42.9994 126.3105 0001809 275.4731 161.3782 15.63118329  4117
STARLINK-35426          
1 66441U 25259V   25333.25002315 -.01997986  00000+0 -24231-1 0  9991
2 66441  42.9992 126.3039 0001587 273.9684 164.7967 15.63128278  4111
STARLINK-34724          
1 66442U 25259W   25333.25002315 -.01979460  00000+0 -23984-1 0  9993
2 66442  42.9998 126.3004 0001724 277.7850 162.9011 15.63117191  4112
STARLINK-35219          
1 66443U 25259X   25333.25002315 -.01977795  00000+0 -23960-1 0  9997
2 66443  42.9996 126.2955 0001763 278.3215 164.2799 15.63117378  4003
STARLINK-35360          
1 66444U 25259Y   25333.25002315 -.01996566  00000+0 -24214-1 0  9998
2 66444  42.9995 126.2795 0001640 274.0526 174.3006 15.63124899  4118
STARLINK-34698          
1 66445U 25259Z   25333.25002315 -.01979225  00000+0 -23978-1 0  9998
2 66445  42.9996 126.2901 0001833 278.1636 166.3527 15.63118794  4004
STARLINK-34986          
1 66446U 25259AA  25333.25002315 -.02003365  00000+0 -24302-1 0  9995
2 66446  42.9995 126.2839 0001608 275.4633 170.9692 15.63130979  4116
STARLINK-34851          
1 66447U 25259AB  25333.25002315 -.01987615  00000+0 -24093-1 0  9991
2 66447  42.9998 126.2746 0001665 273.9428 176.3274 15.63121202  4008
STARLINK-35355          
1 66448U 25259AC  25333.25002315 -.01999870  00000+0 -24256-1 0  9999
2 66448  42.9998 126.2703 0001663 274.8146 177.3707 15.63127717  4118
STARLINK-34720          
1 66449U 25259AD  25333.25002315 -.02001301  00000+0 -24275-1 0  9995
2 66449  42.9998 126.2651 0001682 273.1202 180.9809 15.63129194  4009
STARLINK-35334          
1 66450U 25259AE  25333.25002315 -.01997921  00000+0 -24231-1 0  9990
2 66450  42.9998 126.2595 0001556 273.1269 182.8924 15.63127122  4111
VIASAT-3 F2             
1 66454U 25261A   25330.74705039 -.00000051  00000+0  00000+0 0  9994
2 66454   5.5832 293.8608 2341324 182.7714 334.4159  2.28187844   288
ATLAS 5 CENTAUR R/B     
1 66455U 25261B   25330.76889782 -.00000052  00000+0  00000+0 0  9996
2 66455   6.1673 293.2138 2329931 183.2713 340.9993  2.28258333   286
STARLINK-35643          
1 66456U 25262A   25333.25002315 -.01397547  00000+0 -94639-2 0  9998
2 66456  42.9993 150.7948 0001446 266.6590 335.7449 15.76832539  3476
STARLINK-35466          
1 66457U 25262B   25333.25002315 -.01380589  00000+0 -94148-2 0  9992
2 66457  42.9993 150.7842 0001598 270.8918 335.7398 15.76640648  3470
STARLINK-35684          
1 66458U 25262C   25333.25002315 -.01429833  00000+0 -97378-2 0  9997
2 66458  42.9994 150.7897 0001509 264.0040 340.4778 15.76770226  3476
STARLINK-35449          
1 66459U 25262D   25333.25002315 -.01450057  00000+0 -99999-2 0  9991
2 66459  42.9990 150.7782 0001508 267.5619 341.2193 15.76532377  3478
STARLINK-35424          
1 66460U 25262E   25333.25002315 -.01430491  00000+0 -99203-2 0  9991
2 66460  42.9993 150.7733 0001576 264.7054 346.2417 15.76366806  3472
STARLINK-35132          
1 66461U 25262F   25333.25002315 -.01312386  00000+0 -90787-2 0  9992
2 66461  42.9991 150.7679 0001397 268.6955 344.3661 15.76186111  3473
STARLINK-35499          
1 66462U 25262G   25333.25002315 -.01367870  00000+0 -95203-2 0  9999
2 66462  42.9991 150.7623 0001541 266.4083 348.6360 15.76159444  3474
STARLINK-35463          
1 66463U 25262H   25333.25002315 -.01093536  00000+0 -76551-2 0  9990
2 66463  42.9992 150.7520 0001612 267.5312 351.5971 15.75865678  3471
